SITRO-AIS 8 (ANOKHIN)   
1 57193U 23091AD  26073.96165733  .00019033  00000+0  66505-3 0  9998
2 57193  97.5168 138.3091 0012343  76.5517 283.7097 15.29536924150033
SITRO-AIS 7 (FARTUSHNIY)
1 57194U 23091AE  26073.95049117  .00008088  00000+0  33359-3 0  9994
2 57194  97.5179 136.5063 0014008  80.8146 279.4675 15.24240742149915
AVION KALUGA 650        
1 57195U 23091AF  26073.94755102  .00007734  00000+0  36894-3 0  9996
2 57195  97.5211 133.9260 0012162  81.7949 278.4664 15.19295958149711
HORS 2                  
1 57196U 23091AG  26073.96271983  .00017752  00000+0  62287-3 0  9995
2 57196  97.5196 139.8387 0009577  64.0957 296.1269 15.29445850150111
A-SEANSAT-PG1           
1 57197U 23091AH  26073.96328433  .00022649  00000+0  69674-3 0  9997
2 57197  97.5184 141.7310 0008635  62.9871 297.2252 15.33643538150250
SITRO-AIS 10 (BURDAEV)  
1 57199U 23091AK  26073.96818343  .00025036  00000+0  73748-3 0  9993
2 57199  97.5180 142.4781 0007825  59.1067 301.0944 15.35003022150299
SITRO-AIS 9 (SHCHUKIN)  
1 57201U 23091AM  26073.96770247  .00024135  00000+0  71973-3 0  9994
2 57201  97.5180 142.2738 0008067  58.6562 301.5469 15.34620949150284
UTMN 2 (RS27S)          
1 57203U 23091AP  26073.93656087  .00018515  00000+0  64527-3 0  9990
2 57203  97.5194 139.9778 0009403  60.7366 299.4813 15.29658731150124
SITRO-AIS 12 (SMIRENNIY)
1 57204U 23091AQ  26073.97516933  .00025143  00000+0  74381-3 0  9994
2 57204  97.5191 142.6930 0007625  54.2734 305.9217 15.34869151150301
SITRO-AIS 11 (SHEFFER)  
1 57208U 23091AU  26073.94716508  .00027204  00000+0  79556-3 0  9994
2 57208  97.5189 142.8571 0007476  54.1255 306.0681 15.35216473150318
H2SAT (HEINRICH HERTZ)  
1 57213U 23093A   26072.96155966  .00000002  00000+0  00000+0 0  9999
2 57213   0.0331 282.4636 0001331 186.4971  49.4633  1.00276337  9964
KUZGTU 1 (RS47S)        
1 57217U 23091AV  26073.97649954  .00016830  00000+0  62356-3 0  9990
2 57217  97.5178 137.6075 0012710  73.6015 286.6620 15.27637720149984
QIANKUN-1               
1 57422U 23103B   26073.18591759  .00209116  21596-4  22697-3 0  9997
2 57422  96.1906 124.4262 0044244 163.3561 196.9189 16.07731813152038
FENGYUN 3F              
1 57490U 23111A   26073.90248384  .00000065  00000+0  50874-4 0  9997
2 57490  98.6913 145.6400 0001156  77.5360 282.5946 14.19920761135481
METEOR 2-1 DEB          
1 57492U 75064F   26069.78005252  .00005901  00000+0  23523-2 0  9992
2 57492  81.2784  97.7263 0005160  26.0456 334.0984 14.28462970388933
HJ-2F                   
1 57519U 23116A   26073.95136358  .00011489  00000+0  52187-3 0  9996
2 57519  97.3880  80.8970 0009489  25.5481 334.6222 15.20890917144420
