[{"OBJECT_NAME":"SITRO-AIS 8 (ANOKHIN)","OBJECT_ID":"2023-091AD","EPOCH":"2026-03-14T23:04:47.193312","MEAN_MOTION":15.29536924,"ECCENTRICITY":0.00123436,"INCLINATION":97.5168,"RA_OF_ASC_NODE":138.3091,"ARG_OF_PERICENTER":76.5517,"MEAN_ANOMALY":283.7097,"EPHEMERIS_TYPE":0,"CLASSIFICATION_TYPE":"U","NORAD_CAT_ID":57193,"ELEMENT_SET_NO":999,"REV_AT_EPOCH":15003,"BSTAR":0.00066505057,"MEAN_MOTION_DOT":0.00019033,"MEAN_MOTION_DDOT":0},{"OBJECT_NAME":"SITRO-AIS 7 (FARTUSHNIY)","OBJECT_ID":"2023-091AE","EPOCH":"2026-03-14T22:48:42.437088","MEAN_MOTION":15.24240742,"ECCENTRICITY":0.0014008,"INCLINATION":97.5179,"RA_OF_ASC_NODE":136.5063,"ARG_OF_PERICENTER":80.8146,"MEAN_ANOMALY":279.4675,"EPHEMERIS_TYPE":0,"CLASSIFICATION_TYPE":"U","NORAD_CAT_ID":57194,"ELEMENT_SET_NO":999,"REV_AT_EPOCH":14991,"BSTAR":0.00033359009,"MEAN_MOTION_DOT":8.088e-5,"MEAN_MOTION_DDOT":0},{"OBJECT_NAME":"AVION KALUGA 650","OBJECT_ID":"2023-091AF","EPOCH":"2026-03-14T22:44:28.408128","MEAN_MOTION":15.19295958,"ECCENTRICITY":0.00121627,"INCLINATION":97.5211,"RA_OF_ASC_NODE":133.926,"ARG_OF_PERICENTER":81.7949,"MEAN_ANOMALY":278.4664,"EPHEMERIS_TYPE":0,"CLASSIFICATION_TYPE":"U","NORAD_CAT_ID":57195,"ELEMENT_SET_NO":999,"REV_AT_EPOCH":14971,"BSTAR":0.00036894202,"MEAN_MOTION_DOT":7.734e-5,"MEAN_MOTION_DDOT":0},{"OBJECT_NAME":"HORS 2","OBJECT_ID":"2023-091AG","EPOCH":"2026-03-14T23:06:18.993312","MEAN_MOTION":15.2944585,"ECCENTRICITY":0.00095778,"INCLINATION":97.5196,"RA_OF_ASC_NODE":139.8387,"ARG_OF_PERICENTER":64.0957,"MEAN_ANOMALY":296.1269,"EPHEMERIS_TYPE":0,"CLASSIFICATION_TYPE":"U","NORAD_CAT_ID":57196,"ELEMENT_SET_NO":999,"REV_AT_EPOCH":15011,"BSTAR":0.00062287362,"MEAN_MOTION_DOT":0.00017752,"MEAN_MOTION_DDOT":0},{"OBJECT_NAME":"A-SEANSAT-PG1","OBJECT_ID":"2023-091AH","EPOCH":"2026-03-14T23:07:07.766112","MEAN_MOTION":15.33643538,"ECCENTRICITY":0.00086358,"INCLINATION":97.5184,"RA_OF_ASC_NODE":141.731,"ARG_OF_PERICENTER":62.9871,"MEAN_ANOMALY":297.2252,"EPHEMERIS_TYPE":0,"CLASSIFICATION_TYPE":"U","NORAD_CAT_ID":57197,"ELEMENT_SET_NO":999,"REV_AT_EPOCH":15025,"BSTAR":0.00069673522,"MEAN_MOTION_DOT":0.00022649,"MEAN_MOTION_DDOT":0},{"OBJECT_NAME":"SITRO-AIS 10 (BURDAEV)","OBJECT_ID":"2023-091AK","EPOCH":"2026-03-14T23:14:11.048352","MEAN_MOTION":15.35003022,"ECCENTRICITY":0.00078253,"INCLINATION":97.518,"RA_OF_ASC_NODE":142.4781,"ARG_OF_PERICENTER":59.1067,"MEAN_ANOMALY":301.0944,"EPHEMERIS_TYPE":0,"CLASSIFICATION_TYPE":"U","NORAD_CAT_ID":57199,"ELEMENT_SET_NO":999,"REV_AT_EPOCH":15029,"BSTAR":0.00073747924,"MEAN_MOTION_DOT":0.00025036,"MEAN_MOTION_DDOT":0},{"OBJECT_NAME":"SITRO-AIS 9 (SHCHUKIN)","OBJECT_ID":"2023-091AM","EPOCH":"2026-03-14T23:13:29.493408","MEAN_MOTION":15.34620949,"ECCENTRICITY":0.0008067,"INCLINATION":97.518,"RA_OF_ASC_NODE":142.2738,"ARG_OF_PERICENTER":58.6562,"MEAN_ANOMALY":301.5469,"EPHEMERIS_TYPE":0,"CLASSIFICATION_TYPE":"U","NORAD_CAT_ID":57201,"ELEMENT_SET_NO":999,"REV_AT_EPOCH":15028,"BSTAR":0.00071972747,"MEAN_MOTION_DOT":0.00024135,"MEAN_MOTION_DDOT":0},{"OBJECT_NAME":"UTMN 2 (RS27S)","OBJECT_ID":"2023-091AP","EPOCH":"2026-03-14T22:28:38.859168","MEAN_MOTION":15.29658731,"ECCENTRICITY":0.00094036,"INCLINATION":97.5194,"RA_OF_ASC_NODE":139.9778,"ARG_OF_PERICENTER":60.7366,"MEAN_ANOMALY":299.4813,"EPHEMERIS_TYPE":0,"CLASSIFICATION_TYPE":"U","NORAD_CAT_ID":57203,"ELEMENT_SET_NO":999,"REV_AT_EPOCH":15012,"BSTAR":0.000645267,"MEAN_MOTION_DOT":0.00018515,"MEAN_MOTION_DDOT":0},{"OBJECT_NAME":"SITRO-AIS 12 (SMIRENNIY)","OBJECT_ID":"2023-091AQ","EPOCH":"2026-03-14T23:24:14.630112","MEAN_MOTION":15.34869151,"ECCENTRICITY":0.00076256,"INCLINATION":97.5191,"RA_OF_ASC_NODE":142.693,"ARG_OF_PERICENTER":54.2734,"MEAN_ANOMALY":305.9217,"EPHEMERIS_TYPE":0,"CLASSIFICATION_TYPE":"U","NORAD_CAT_ID":57204,"ELEMENT_SET_NO":999,"REV_AT_EPOCH":15030,"BSTAR":0.00074380506,"MEAN_MOTION_DOT":0.00025143,"MEAN_MOTION_DDOT":0},{"OBJECT_NAME":"SITRO-AIS 11 (SHEFFER)","OBJECT_ID":"2023-091AU","EPOCH":"2026-03-14T22:43:55.062912","MEAN_MOTION":15.35216473,"ECCENTRICITY":0.00074769,"INCLINATION":97.5189,"RA_OF_ASC_NODE":142.8571,"ARG_OF_PERICENTER":54.1255,"MEAN_ANOMALY":306.0681,"EPHEMERIS_TYPE":0,"CLASSIFICATION_TYPE":"U","NORAD_CAT_ID":57208,"ELEMENT_SET_NO":999,"REV_AT_EPOCH":15031,"BSTAR":0.00079556093,"MEAN_MOTION_DOT":0.00027204,"MEAN_MOTION_DDOT":0},{"OBJECT_NAME":"H2SAT (HEINRICH HERTZ)","OBJECT_ID":"2023-093A","EPOCH":"2026-03-13T23:04:38.754624","MEAN_MOTION":1.00276337,"ECCENTRICITY":0.00013318,"INCLINATION":0.0331,"RA_OF_ASC_NODE":282.4636,"ARG_OF_PERICENTER":186.4971,"MEAN_ANOMALY":49.4633,"EPHEMERIS_TYPE":0,"CLASSIFICATION_TYPE":"U","NORAD_CAT_ID":57213,"ELEMENT_SET_NO":999,"REV_AT_EPOCH":996,"BSTAR":0,"MEAN_MOTION_DOT":2.0e-8,"MEAN_MOTION_DDOT":0},{"OBJECT_NAME":"KUZGTU 1 (RS47S)","OBJECT_ID":"2023-091AV","EPOCH":"2026-03-14T23:26:09.560256","MEAN_MOTION":15.2763772,"ECCENTRICITY":0.00127103,"INCLINATION":97.5178,"RA_OF_ASC_NODE":137.6075,"ARG_OF_PERICENTER":73.6015,"MEAN_ANOMALY":286.662,"EPHEMERIS_TYPE":0,"CLASSIFICATION_TYPE":"U","NORAD_CAT_ID":57217,"ELEMENT_SET_NO":999,"REV_AT_EPOCH":14998,"BSTAR":0.00062356135,"MEAN_MOTION_DOT":0.0001683,"MEAN_MOTION_DDOT":0},{"OBJECT_NAME":"QIANKUN-1","OBJECT_ID":"2023-103B","EPOCH":"2026-03-14T04:27:43.279776","MEAN_MOTION":16.07731813,"ECCENTRICITY":0.00442447,"INCLINATION":96.1906,"RA_OF_ASC_NODE":124.4262,"ARG_OF_PERICENTER":163.3561,"MEAN_ANOMALY":196.9189,"EPHEMERIS_TYPE":0,"CLASSIFICATION_TYPE":"U","NORAD_CAT_ID":57422,"ELEMENT_SET_NO":999,"REV_AT_EPOCH":15203,"BSTAR":0.00022697036,"MEAN_MOTION_DOT":0.00209116,"MEAN_MOTION_DDOT":2.1595679e-5},{"OBJECT_NAME":"FENGYUN 3F","OBJECT_ID":"2023-111A","EPOCH":"2026-03-14T21:39:34.603776","MEAN_MOTION":14.19920761,"ECCENTRICITY":0.00011568,"INCLINATION":98.6913,"RA_OF_ASC_NODE":145.64,"ARG_OF_PERICENTER":77.536,"MEAN_ANOMALY":282.5946,"EPHEMERIS_TYPE":0,"CLASSIFICATION_TYPE":"U","NORAD_CAT_ID":57490,"ELEMENT_SET_NO":999,"REV_AT_EPOCH":13548,"BSTAR":5.0873655e-5,"MEAN_MOTION_DOT":6.5e-7,"MEAN_MOTION_DDOT":0},{"OBJECT_NAME":"METEOR 2-1 DEB","OBJECT_ID":"1975-064F","EPOCH":"2026-03-10T18:43:16.537728","MEAN_MOTION":14.2846297,"ECCENTRICITY":0.000516,"INCLINATION":81.2784,"RA_OF_ASC_NODE":97.7263,"ARG_OF_PERICENTER":26.0456,"MEAN_ANOMALY":334.0984,"EPHEMERIS_TYPE":0,"CLASSIFICATION_TYPE":"U","NORAD_CAT_ID":57492,"ELEMENT_SET_NO":999,"REV_AT_EPOCH":38893,"BSTAR":0.0023523122,"MEAN_MOTION_DOT":5.901e-5,"MEAN_MOTION_DDOT":0},{"OBJECT_NAME":"HJ-2F","OBJECT_ID":"2023-116A","EPOCH":"2026-03-14T22:49:57.813312","MEAN_MOTION":15.20890917,"ECCENTRICITY":0.00094897,"INCLINATION":97.388,"RA_OF_ASC_NODE":80.897,"ARG_OF_PERICENTER":25.5481,"MEAN_ANOMALY":334.6222,"EPHEMERIS_TYPE":0,"CLASSIFICATION_TYPE":"U","NORAD_CAT_ID":57519,"ELEMENT_SET_NO":999,"REV_AT_EPOCH":14442,"BSTAR":0.0005218678,"MEAN_MOTION_DOT":0.00011489,"MEAN_MOTION_DDOT":0}]
